{"type": "FeatureCollection", "features": [ {"type": "Feature", "properties": {"norad_id": 66805, "name": "STARLINK-36049", "group": "last-30-days", "lat": 31.461804413043335, "lon": -70.77970265296678, "alt_km": 311.7777590254209, "timestamp": "2025-12-13T08:49:14.457639+00:00", "meta": {"OBJECT_NAME": "STARLINK-36049", "OBJECT_ID": "2025-278Q", "EPOCH": "2025-12-12T23:32:44.003904", "MEAN_MOTION": 15.87316186, "ECCENTRICITY": 0.00034347, "INCLINATION": 42.9975, "RA_OF_ASC_NODE": 250.5563, "ARG_OF_PERICENTER": 251.0843, "MEAN_ANOMALY": 108.9659, "EPHEMERIS_TYPE": 0, "CLASSIFICATION_TYPE": "U", "NORAD_CAT_ID": 66805, "ELEMENT_SET_NO": 999, "REV_AT_EPOCH": 187, "BSTAR": -0.0081812723, "MEAN_MOTION_DOT": -0.01943886, "MEAN_MOTION_DDOT": 0}, "tle": {"line1": "1 66805U 25278Q   25346.98106486 -.01943886  00000+0 -81813-2 0  9994", "line2": "2 66805  42.9975 250.5563 0003434 251.0843 108.9659 15.87316186  1876"}}, "geometry": {"type": "Point", "coordinates": [-70.77970265296678, 31.461804413043335]}}, {"type": "Feature", "properties": {"norad_id": 66806, "name": "STARLINK-36069", "group": "last-30-days", "lat": 33.47234474677137, "lon": -66.62855201475739, "alt_km": 292.8529263782111, "timestamp": "2025-12-13T08:49:14.457650+00:00", "meta": {"OBJECT_NAME": "STARLINK-36069", "OBJECT_ID": "2025-278R", "EPOCH": "2025-12-12T23:33:28.013472", "MEAN_MOTION": 15.89964578, "ECCENTRICITY": 0.00095169, "INCLINATION": 42.9955, "RA_OF_ASC_NODE": 250.5622, "ARG_OF_PERICENTER": 265.6965, "MEAN_ANOMALY": 94.2822, "EPHEMERIS_TYPE": 0, "CLASSIFICATION_TYPE": "U", "NORAD_CAT_ID": 66806, "ELEMENT_SET_NO": 999, "REV_AT_EPOCH": 187, "BSTAR": 0.012088276, "MEAN_MOTION_DOT": 0.03313883, "MEAN_MOTION_DDOT": 0.010113462}, "tle": {"line1": "1 66806U 25278R   25346.98157423  .03313883  10113-1  12088-1 0  9995", "line2": "2 66806  42.9955 250.5622 0009516 265.6965  94.2822 15.89964578  1879"}}, "geometry": {"type": "Point", "coordinates": [-66.62855201475739, 33.47234474677137]}}, {"type": "Feature", "properties": {"norad_id": 66807, "name": "STARLINK-36000", "group": "last-30-days", "lat": 33.94740341677857, "lon": -65.5797081447626, "alt_km": 308.85222995969343, "timestamp": "2025-12-13T08:49:14.457662+00:00", "meta": {"OBJECT_NAME": "STARLINK-36000", "OBJECT_ID": "2025-278S", "EPOCH": "2025-12-12T18:59:45.730464", "MEAN_MOTION": 15.88144314, "ECCENTRICITY": 0.00044665, "INCLINATION": 42.9973, "RA_OF_ASC_NODE": 251.7173, "ARG_OF_PERICENTER": 311.7795, "MEAN_ANOMALY": 48.2697, "EPHEMERIS_TYPE": 0, "CLASSIFICATION_TYPE": "U", "NORAD_CAT_ID": 66807, "ELEMENT_SET_NO": 999, "REV_AT_EPOCH": 184, "BSTAR": -0.0075543401, "MEAN_MOTION_DOT": -0.01841027, "MEAN_MOTION_DDOT": 0}, "tle": {"line1": "1 66807U 25278S   25346.79150151 -.01841027  00000+0 -75543-2 0  9990", "line2": "2 66807  42.9973 251.7173 0004466 311.7795  48.2697 15.88144314  1840"}}, "geometry": {"type": "Point", "coordinates": [-65.5797081447626, 33.94740341677857]}}, {"type": "Feature", "properties": {"norad_id": 66808, "name": "STARLINK-36071", "group": "last-30-days", "lat": 37.587596684898195, "lon": -56.15641859639847, "alt_km": 302.96505592605354, "timestamp": "2025-12-13T08:49:14.457672+00:00", "meta": {"OBJECT_NAME": "STARLINK-36071", "OBJECT_ID": "2025-278T", "EPOCH": "2025-12-12T18:59:04.350048", "MEAN_MOTION": 15.89377903, "ECCENTRICITY": 0.00111437, "INCLINATION": 42.9964, "RA_OF_ASC_NODE": 251.7108, "ARG_OF_PERICENTER": 235.9067, "MEAN_ANOMALY": 124.0751, "EPHEMERIS_TYPE": 0, "CLASSIFICATION_TYPE": "U", "NORAD_CAT_ID": 66808, "ELEMENT_SET_NO": 999, "REV_AT_EPOCH": 184, "BSTAR": 0.0022538664, "MEAN_MOTION_DOT": 0.00678433, "MEAN_MOTION_DDOT": 0.0001857259}, "tle": {"line1": "1 66808U 25278T   25346.79102257  .00678433  18573-3  22539-2 0  9996", "line2": "2 66808  42.9964 251.7108 0011143 235.9067 124.0751 15.89377903  1845"}}, "geometry": {"type": "Point", "coordinates": [-56.15641859639847, 37.587596684898195]}}, {"type": "Feature", "properties": {"norad_id": 66809, "name": "STARLINK-35979", "group": "last-30-days", "lat": 37.97983109271752, "lon": -54.94406890172518, "alt_km": 309.73283834701033, "timestamp": "2025-12-13T08:49:14.457682+00:00", "meta": {"OBJECT_NAME": "STARLINK-35979", "OBJECT_ID": "2025-278U", "EPOCH": "2025-12-12T21:58:29.193024", "MEAN_MOTION": 15.8731954, "ECCENTRICITY": 0.00031911, "INCLINATION": 42.9971, "RA_OF_ASC_NODE": 250.9246, "ARG_OF_PERICENTER": 251.8286, "MEAN_ANOMALY": 108.2241, "EPHEMERIS_TYPE": 0, "CLASSIFICATION_TYPE": "U", "NORAD_CAT_ID": 66809, "ELEMENT_SET_NO": 999, "REV_AT_EPOCH": 186, "BSTAR": -0.0055466298, "MEAN_MOTION_DOT": -0.01328381, "MEAN_MOTION_DDOT": 0}, "tle": {"line1": "1 66809U 25278U   25346.91561566 -.01328381  00000+0 -55466-2 0  9997", "line2": "2 66809  42.9971 250.9246 0003191 251.8286 108.2241 15.87319540  1863"}}, "geometry": {"type": "Point", "coordinates": [-54.94406890172518, 37.97983109271752]}}, {"type": "Feature", "properties": {"norad_id": 66810, "name": "STARLINK-36046", "group": "last-30-days", "lat": 38.60245479596725, "lon": -52.90334631995948, "alt_km": 299.72823559571134, "timestamp": "2025-12-13T08:49:14.457692+00:00", "meta": {"OBJECT_NAME": "STARLINK-36046", "OBJECT_ID": "2025-278V", "EPOCH": "2025-12-12T18:58:25.218624", "MEAN_MOTION": 15.8940183, "ECCENTRICITY": 0.0007948, "INCLINATION": 42.9969, "RA_OF_ASC_NODE": 251.7091, "ARG_OF_PERICENTER": 274.9594, "MEAN_ANOMALY": 85.0373, "EPHEMERIS_TYPE": 0, "CLASSIFICATION_TYPE": "U", "NORAD_CAT_ID": 66810, "ELEMENT_SET_NO": 999, "REV_AT_EPOCH": 184, "BSTAR": 0.0023619201, "MEAN_MOTION_DOT": 0.0077805, "MEAN_MOTION_DDOT": 0}, "tle": {"line1": "1 66810U 25278V   25346.79056966  .00778050  00000+0  23619-2 0  9992", "line2": "2 66810  42.9969 251.7091 0007948 274.9594  85.0373 15.89401830  1843"}}, "geometry": {"type": "Point", "coordinates": [-52.90334631995948, 38.60245479596725]}}, {"type": "Feature", "properties": {"norad_id": 66811, "name": "STARLINK-36045", "group": "last-30-days", "lat": 36.462170615319465, "lon": -59.38170216565952, "alt_km": 307.0714479028775, "timestamp": "2025-12-13T08:49:14.457702+00:00", "meta": {"OBJECT_NAME": "STARLINK-36045", "OBJECT_ID": "2025-278W", "EPOCH": "2025-12-12T18:58:22.887552", "MEAN_MOTION": 15.87256602, "ECCENTRICITY": 0.000311, "INCLINATION": 42.9972, "RA_OF_ASC_NODE": 251.7084, "ARG_OF_PERICENTER": 268.0236, "MEAN_ANOMALY": 92.0281, "EPHEMERIS_TYPE": 0, "CLASSIFICATION_TYPE": "U", "NORAD_CAT_ID": 66811, "ELEMENT_SET_NO": 999, "REV_AT_EPOCH": 184, "BSTAR": -0.001265214, "MEAN_MOTION_DOT": -0.00331043, "MEAN_MOTION_DDOT": 0}, "tle": {"line1": "1 66811U 25278W   25346.79054268 -.00331043  00000+0 -12652-2 0  9990", "line2": "2 66811  42.9972 251.7084 0003110 268.0236  92.0281 15.87256602  1843"}}, "geometry": {"type": "Point", "coordinates": [-59.38170216565952, 36.462170615319465]}}, {"type": "Feature", "properties": {"norad_id": 66812, "name": "STARLINK-36054", "group": "last-30-days", "lat": 38.62694860706911, "lon": -52.82312086325896, "alt_km": 310.96186118566493, "timestamp": "2025-12-13T08:49:14.457714+00:00", "meta": {"OBJECT_NAME": "STARLINK-36054", "OBJECT_ID": "2025-278X", "EPOCH": "2025-12-12T18:56:41.768448", "MEAN_MOTION": 15.87505229, "ECCENTRICITY": 0.00034683, "INCLINATION": 42.9975, "RA_OF_ASC_NODE": 251.6981, "ARG_OF_PERICENTER": 245.0144, "MEAN_ANOMALY": 115.0369, "EPHEMERIS_TYPE": 0, "CLASSIFICATION_TYPE": "U", "NORAD_CAT_ID": 66812, "ELEMENT_SET_NO": 999, "REV_AT_EPOCH": 184, "BSTAR": -0.006141601, "MEAN_MOTION_DOT": -0.01463904, "MEAN_MOTION_DDOT": 0}, "tle": {"line1": "1 66812U 25278X   25346.78937232 -.01463904  00000+0 -61416-2 0  9996", "line2": "2 66812  42.9975 251.6981 0003468 245.0144 115.0369 15.87505229  1846"}}, "geometry": {"type": "Point", "coordinates": [-52.82312086325896, 38.62694860706911]}}, {"type": "Feature", "properties": {"norad_id": 66813, "name": "STARLINK-36042", "group": "last-30-days", "lat": 39.455450219200216, "lon": -49.82964784072651, "alt_km": 310.6143198275977, "timestamp": "2025-12-13T08:49:14.457726+00:00", "meta": {"OBJECT_NAME": "STARLINK-36042", "OBJECT_ID": "2025-278Y", "EPOCH": "2025-12-12T18:56:05.945280", "MEAN_MOTION": 15.87478608, "ECCENTRICITY": 0.0003673, "INCLINATION": 42.9973, "RA_OF_ASC_NODE": 251.6955, "ARG_OF_PERICENTER": 249.8274, "MEAN_ANOMALY": 110.2205, "EPHEMERIS_TYPE": 0, "CLASSIFICATION_TYPE": "U", "NORAD_CAT_ID": 66813, "ELEMENT_SET_NO": 999, "REV_AT_EPOCH": 184, "BSTAR": -0.0056511399, "MEAN_MOTION_DOT": -0.01360267, "MEAN_MOTION_DDOT": 0}, "tle": {"line1": "1 66813U 25278Y   25346.78895770 -.01360267  00000+0 -56511-2 0  9995", "line2": "2 66813  42.9973 251.6955 0003673 249.8274 110.2205 15.87478608  1846"}}, "geometry": {"type": "Point", "coordinates": [-49.82964784072651, 39.455450219200216]}}, {"type": "Feature", "properties": {"norad_id": 66814, "name": "STARLINK-35984", "group": "last-30-days", "lat": 42.96962502399213, "lon": -23.138446461208925, "alt_km": 300.53024629787615, "timestamp": "2025-12-13T08:49:14.457739+00:00", "meta": {"OBJECT_NAME": "STARLINK-35984", "OBJECT_ID": "2025-278Z", "EPOCH": "2025-12-12T05:17:39.039072", "MEAN_MOTION": 15.89263924, "ECCENTRICITY": 0.00022268, "INCLINATION": 42.9971, "RA_OF_ASC_NODE": 255.1754, "ARG_OF_PERICENTER": 272.7868, "MEAN_ANOMALY": 87.2751, "EPHEMERIS_TYPE": 0, "CLASSIFICATION_TYPE": "U", "NORAD_CAT_ID": 66814, "ELEMENT_SET_NO": 999, "REV_AT_EPOCH": 175, "BSTAR": -0.00078876214, "MEAN_MOTION_DOT": -0.00230906, "MEAN_MOTION_DDOT": 0}, "tle": {"line1": "1 66814U 25278Z   25346.22059073 -.00230906  00000+0 -78876-3 0  9997", "line2": "2 66814  42.9971 255.1754 0002226 272.7868  87.2751 15.89263924  1752"}}, "geometry": {"type": "Point", "coordinates": [-23.138446461208925, 42.96962502399213]}}]}